SRMSAT                  
1 37841U 11058D   26087.62718838  .00000421  00000+0  84528-4 0  9991
2 37841  19.9709 187.0799 0011914  37.8808 350.3563 14.11554455746424
