{
  "norad_id": 37841,
  "name": "SRMSAT",
  "history": [
    {
      "epoch": "2026-03-28T15:03:09.076032Z",
      "apogee_km": 862.6737017454789,
      "perigee_km": 845.4408292496528,
      "latitude_deg": 9.330578800645863,
      "longitude_deg": 161.97461435414058,
      "height_km": 842.5144651387311,
      "semi_major_axis_km": 7232.1942654975655,
      "eccentricity": 0.0011914,
      "inclination_deg": 19.9709,
      "raan_deg": 187.0799,
      "arg_perigee_deg": 37.8808,
      "mean_anomaly_deg": 350.3563,
      "mean_motion_rev_day": 14.11554455
    }
  ]
}